[{"OBJECT_NAME":"STARLINK-1212","OBJECT_ID":"2020-012AX","EPOCH":"2026-03-10T00:00:02.999808","MEAN_MOTION":15.52195676,"ECCENTRICITY":0.00060327,"INCLINATION":53.0499,"RA_OF_ASC_NODE":348.596,"ARG_OF_PERICENTER":115.9645,"MEAN_ANOMALY":356.8868,"EPHEMERIS_TYPE":0,"CLASSIFICATION_TYPE":"U","NORAD_CAT_ID":45223,"ELEMENT_SET_NO":999,"REV_AT_EPOCH":585,"BSTAR":0.0014830065,"MEAN_MOTION_DOT":0.00092073,"MEAN_MOTION_DDOT":0},{"OBJECT_NAME":"STARLINK-1284","OBJECT_ID":"2020-019AG","EPOCH":"2026-03-09T13:11:17.276064","MEAN_MOTION":15.51780095,"ECCENTRICITY":0.0003713,"INCLINATION":53.0484,"RA_OF_ASC_NODE":131.664,"ARG_OF_PERICENTER":17.3458,"MEAN_ANOMALY":342.7677,"EPHEMERIS_TYPE":0,"CLASSIFICATION_TYPE":"U","NORAD_CAT_ID":45390,"ELEMENT_SET_NO":999,"REV_AT_EPOCH":33020,"BSTAR":0.0015497,"MEAN_MOTION_DOT":0.00094801,"MEAN_MOTION_DDOT":0}]
